0 EGS (AJISAI)
1 16908U 86061A   19265.96559833 -.00000106 +00000-0 -60668-4 0  9995
2 16908 050.0082 149.2493 0011535 041.1769 108.8637 12.44490546174303
0 EGS (AJISAI)
1 16908U 86061A   19266.51029472 -.00000107  00000-0 -64517-4 0  9996
2 16908  50.0082 147.5744 0011545  42.5436  29.2132 12.44490543174583
0 JAS 1 (FUJI 1)
1 16909U 86061B   19265.78915486 -.00000104 +00000-0 -45521-4 0  9995
2 16909 050.0143 154.4539 0011285 025.5692 018.5796 12.44469573505851
0 JAS 1 (FUJI 1)
1 16909U 86061B   19266.13734321 -.00000104  00000-0 -45192-4 0  9996
2 16909  50.0143 153.3836 0011296  26.4289 138.5204 12.44469563505905
0 H-1 R/B(MABES)
1 16910U 86061C   19265.92753454 -.00000064 +00000-0 +24141-3 0  9996
2 16910 050.0029 252.7590 0072259 267.6246 120.5866 12.32585733491149
0 COSMOS 1771
1 16917U 86062A   19265.91548555 -.00000076 +00000-0 +11655-4 0  9997
2 16917 064.9824 229.3825 0047301 003.7072 356.4329 13.82506418671783
0 COSMOS 1771
1 16917U 86062A   19266.20483401 -.00000076  00000-0  11208-4 0  9992
2 16917  64.9824 228.6346 0047329   3.6113 356.5279 13.82506408672042
0 SL-8 R/B
1 16953U 86070B   19266.12185155  .00000043  00000-0  23164-4 0  9994
2 16953  74.0132 190.7121 0013042 218.0299 141.9935 14.37366951731003
0 SL-8 R/B
1 16953U 86070B   19265.77385307 +.00000046 +00000-0 +24146-4 0  9999
2 16953 074.0131 191.3532 0013057 218.7390 141.2829 14.37366941730744
0 COSMOS 1778 (GLONASS)
1 16961U 86071A   19265.76160486 +.00000010 +00000-0 +00000-0 0  9997
2 16961 064.1145 156.9213 0004829 215.8106 329.8861 02.13102962256960
0 COSMOS 1780 (GLONASS)
1 16963U 86071C   19265.32646123 +.00000010 +00000-0 +00000-0 0  9998
2 16963 064.1028 156.7556 0003219 326.9049 277.5930 02.13106742256902
0 COSMOS 1780 (GLONASS)
1 16963U 86071C   19266.18879646  .00000010  00000-0  00000+0 0  9990
2 16963  64.1029 156.7260 0003190 327.5577 218.5106  2.13106738256967
0 SL-12 R/B(2)
1 16968U 86071F   19266.30196380  .00000011  00000-0  00000+0 0  9997
2 16968  64.1117 156.1449 0023804 215.4454 256.0195  2.13266035257228
0 NOAA 10
1 16969U 86073A   19266.57030416  .00000004  00000-0  18823-4 0  9995
2 16969  98.4852 260.3592 0012335   7.1323 100.2391 14.28078779718663
0 NOAA 10
1 16969U 86073A   19265.92241532 +.00000006 +00000-0 +19471-4 0  9998
2 16969 098.4851 259.7295 0012372 009.0045 009.4199 14.28078755718319
0 COSMOS 1782
1 16986U 86074A   19265.90500323 +.00000905 +00000-0 +58263-4 0  9992
2 16986 082.5078 035.6322 0012405 035.2073 324.9972 15.07120457774326
0 SL-14 R/B
1 16987U 86074B   19265.94671469 +.00000080 +00000-0 +68336-5 0  9994
2 16987 082.5138 255.1554 0019541 056.4562 003.3003 14.83048671760043
0 SL-14 R/B
1 16987U 86074B   19266.08301359  .00000076  00000-0  62979-5 0  9990
2 16987  82.5138 255.0278 0019538  56.0364  10.9675 14.83048664781175
0 COSMOS 1783
1 16993U 86075A   19265.80433392  .00182379  11236-4  86616-4 0  9997
2 16993  62.2177   9.4422 5878853 256.1338  35.4088  4.38614933484610
0 COSMOS 1783
1 16993U 86075A   19265.80433392 +.00182379 +11236-4 +86616-4 0  9997
2 16993 062.2177 009.4422 5878853 256.1338 035.4088 04.38614933484542
0 COSMOS 1783
1 16993U 86075A   19266.26020725  .00193886  95401-5  90952-4 0  9990
2 16993  62.2170   9.2348 5877742 256.1543  35.4075  4.38811714484636
0 SL-6 R/B(2)
1 16996U 86075D   19266.24038224 -.00000085  00000-0 -30770-4 0  9992
2 16996  62.6069  94.9765 5931167 226.1623  66.3550  4.03364510485778
0 SL-6 R/B(2)
1 16996U 86075D   19265.74456711 -.00000105 +00000-0 -27360-4 0  9995
2 16996 062.6069 095.1644 5931051 226.1489 066.3770 04.03364507485713
0 DELTA 1 DEB
1 17000U 76077EX  19266.44597425 -.00002651  00000-0 -44416-1 0  9995
2 17000 102.4692 343.5866 0682351  59.5438   5.3902 11.29892562459404
0 COSMOS 839 DEB
1 17018U 76067BJ  19266.55301222  .00000544  00000-0  20966-2 0  9995
2 17018  66.0250 231.2090 0624966  42.0970  65.8187 12.45057471577538
0 COSMOS 839 DEB
1 17018U 76067BJ  19265.35714156 +.00000489 +00000-0 +19043-2 0  9998
2 17018 066.0248 233.5530 0624789 042.6050 105.6827 12.45056199577391
0 THORAD DELTA 1 DEB
1 17023U 74089EW  19265.92022708 +.00000027 +00000-0 +38024-3 0  9993
2 17023 101.2030 254.6290 0051321 158.0899 230.0216 12.63872472597942
0 DELTA 1 DEB
1 17024U 77065FT  19266.24378539  .00001733  00000-0  38207-2 0  9990
2 17024  29.4377 301.8519 0869291 336.2667  19.9986 12.32369795131209
0 COSMOS 1771 FUEL CORE
1 17035U 86062C   19266.79135597 -.00000095  00000-0 -44729-5 0  9995
2 17035  64.9951  29.5611 0043571 330.9793 104.5833 13.86393212667810
0 COSMOS 1771 FUEL CORE
1 17035U 86062C   19265.92853076 -.00000093 +00000-0 -27608-5 0  9993
2 17035 064.9950 031.8048 0043500 331.2093 118.2662 13.86393213667686
0 SL-12 R/B(2)
1 17065U 86082F   19264.99930618 -.00000168 +00000-0 +00000-0 0  9996
2 17065 014.9480 345.3146 0026229 103.5244 250.9656 00.97599168091662
0 SL-12 R/B(2)
1 17065U 86082F   19265.99910281 -.00000162  00000-0  00000+0 0  9994
2 17065  14.9470 345.3050 0026221 103.5859 242.2020  0.97599000 91810
0 COSMOS 1791
1 17066U 86086A   19266.18096667  .00000043  00000-0  29164-4 0  9998
2 17066  82.9438 284.5471 0039556 270.1119 158.6910 13.75779670650054
0 COSMOS 1791
1 17066U 86086A   19265.68592497 +.00000042 +00000-0 +28221-4 0  9996
2 17066 082.9438 284.9143 0039557 271.5443 226.7959 13.75779651649989
0 SL-8 R/B
1 17067U 86086B   19265.94197523 +.00000066 +00000-0 +50439-4 0  9999
2 17067 082.9410 255.3815 0034466 172.6086 244.9841 13.77727928651714
0 SL-8 R/B
1 17067U 86086B   19266.53537248  .00000079  00000-0  63692-4 0  9996
2 17067  82.9411 254.9397 0034502 170.9611 308.1127 13.77728069651796
0 POLAR BEAR
1 17070U 86088A   19265.66249153 +.00000037 +00000-0 +26530-4 0  9994
2 17070 089.5212 286.0417 0040367 131.5841 007.2822 13.74785145647446
0 POLAR BEAR
1 17070U 86088A   19266.15809087  .00000042  00000-0  31431-4 0  9999
2 17070  89.5212 286.0168 0040399 130.1512 300.0543 13.74785181647785
0 SCOUT G-1 R/B
1 17071U 86088B   19265.60089135 +.00000045 +00000-0 +34646-4 0  9997
2 17071 089.5170 277.5704 0039892 115.5698 244.9599 13.75115094647809
0 SL-6 R/B(2)
1 17081U 86089D   19265.48485083 +.00000545 +00000-0 +41931-2 0  9995
2 17081 064.4966 015.7205 7003594 268.8277 029.8984 01.95707836234793
0 SL-6 R/B(2)
1 17081U 86089D   19266.50167272  .00000328  00000-0  12067-1 0  9992
2 17081  64.4964  15.6069 7003554 268.8175  26.3051  1.95710379234862
0 OPS 4682 DEB
1 17093U 65027U   19266.08793566 -.00000355  00000-0 -12520-2 0  9995
2 17093  90.2954 310.0432 0023685  27.0321   1.8006 12.97111923630553
0 OPS 4682 DEB
1 17093U 65027U   19265.08514400 -.00000390 +00000-0 -13733-2 0  9998
2 17093 090.2954 310.0160 0023772 029.7145 359.1198 12.97112363627951
0 COSMOS 1375 DEB
1 17102U 82055AD  19265.45290078 -.00000062 +00000-0 +19719-4 0  9999
2 17102 065.8374 004.7909 0082184 234.6658 196.5689 13.60887345685112
0 COSMOS 1375 DEB
1 17102U 82055AD  19266.63467875 -.00000076  00000-0  27549-5 0  9997
2 17102  65.8374   1.9409 0082136 234.1701 226.2536 13.60887242685531
0 COSMOS 1375 DEB
1 17103U 82055AE  19266.44659937  .00000078  00000-0  16318-3 0  9990
2 17103  65.8280 107.2617 0024479 168.5539 267.1837 13.75873427700299
0 COSMOS 1375 DEB
1 17103U 82055AE  19265.94438934 +.00000079 +00000-0 +16408-3 0  9997
2 17103 065.8279 108.5046 0024500 168.8473 299.6194 13.75873305699964
0 COSMOS 1375 DEB
1 17104U 82055AF  19265.09332502 -.00000005 +00000-0 +78682-4 0  9991
2 17104 065.8326 111.6836 0025150 081.5999 001.6654 13.74811517699885
0 COSMOS 1375 DEB
1 17105U 82055AG  19265.19473872 +.00000000 +00000-0 +85543-4 0  9997
2 17105 065.8316 171.5520 0032344 198.9469 313.9164 13.73980689698316
0 COSMOS 1375 DEB
1 17106U 82055AH  19265.82436553 +.00000017 +00000-0 +88696-4 0  9993
2 17106 065.8314 034.7383 0029978 289.9699 147.3238 13.84327065879695
0 COSMOS 1375 DEB
1 17107U 82055AJ  19265.40997532 +.00000256 +00000-0 +22748-3 0  9997
2 17107 065.8211 245.3446 0037847 232.1982 282.7778 14.00826794722086
0 COSMOS 1375 DEB
1 17107U 82055AJ  19266.18224076  .00000262  00000-0  23150-3 0  9994
2 17107  65.8212 243.3511 0037775 231.8934 217.2045 14.00827395722472
0 ARIANE 1 DEB
1 17117U 86019M   19266.15739346  .00000407  00000-0  13720-3 0  9990
2 17117  98.3836 304.6554 0086493 237.8281 158.4573 14.40147461704426
0 ARIANE 1 DEB
1 17117U 86019M   19265.69288969 +.00000399 +00000-0 +13467-3 0  9996
2 17117 098.3836 304.2004 0086455 239.2364 270.2114 14.40147023704088
0 ARIANE 1 DEB
1 17118U 86019N   19265.10395795 +.00000372 +00000-0 +17771-3 0  9992
2 17118 098.7049 301.8520 0140381 285.5778 088.9400 14.19991624684840
0 ARIANE 1 DEB
1 17118U 86019N   19266.09788748  .00000408  00000-0  19300-3 0  9995
2 17118  98.7048 302.8302 0140402 282.6857 129.9077 14.19992683685199
0 ARIANE 1 DEB
1 17122U 86019S   19266.26599889  .00000287  00000-0  45081-4 0  9996
2 17122  97.9888 315.8353 0004794 258.2619 145.5212 14.79827232734491
0 ARIANE 1 DEB
1 17122U 86019S   19265.80926795 +.00000265 +00000-0 +42159-4 0  9994
2 17122 097.9888 315.3811 0004767 260.2181 231.8650 14.79826831734424
0 SL-12 R/B(2)
1 17125U 86090D   19265.86402679 +.00000128 +00000-0 +00000-0 0  9995
2 17125 013.8820 342.6267 0008074 101.3011 258.8213 01.00326467120209
0 ARIANE 1 DEB
1 17128U 86019X   19265.89309817 +.00001609 +00000-0 +22249-3 0  9999
2 17128 098.3742 061.3742 0047102 254.7738 104.8262 14.78879174717146
0 ARIANE 1 DEB
1 17128U 86019X   19266.56969295  .00001668  00000-0  23021-3 0  9990
2 17128  98.3743  62.0783 0047140 252.5732 107.0321 14.78881622717469
